[{"OBJECT_NAME":"STARLINK-1356","OBJECT_ID":"2020-025AK","EPOCH":"2025-08-06T17:01:53.513760","MEAN_MOTION":15.06387577,"ECCENTRICITY":0.00012613,"INCLINATION":53.0558,"RA_OF_ASC_NODE":331.702,"ARG_OF_PERICENTER":85.77,"MEAN_ANOMALY":274.3433,"EPHEMERIS_TYPE":0,"CLASSIFICATION_TYPE":"U","NORAD_CAT_ID":45564,"ELEMENT_SET_NO":999,"REV_AT_EPOCH":29296,"BSTAR":2.1976263e-5,"MEAN_MOTION_DOT":4.6e-7,"MEAN_MOTION_DDOT":0},{"OBJECT_NAME":"STARLINK-1357","OBJECT_ID":"2020-025AL","EPOCH":"2025-08-06T18:25:55.876512","MEAN_MOTION":15.20792813,"ECCENTRICITY":0.00031829,"INCLINATION":53.0532,"RA_OF_ASC_NODE":327.9469,"ARG_OF_PERICENTER":291.9094,"MEAN_ANOMALY":68.1563,"EPHEMERIS_TYPE":0,"CLASSIFICATION_TYPE":"U","NORAD_CAT_ID":45565,"ELEMENT_SET_NO":999,"REV_AT_EPOCH":29302,"BSTAR":0.00086383804,"MEAN_MOTION_DOT":0.00019007,"MEAN_MOTION_DDOT":0},{"OBJECT_NAME":"STARLINK-1361","OBJECT_ID":"2020-025AN","EPOCH":"2025-08-06T19:03:58.036608","MEAN_MOTION":15.06391945,"ECCENTRICITY":0.00012886,"INCLINATION":53.0562,"RA_OF_ASC_NODE":331.3252,"ARG_OF_PERICENTER":94.8806,"MEAN_ANOMALY":265.233,"EPHEMERIS_TYPE":0,"CLASSIFICATION_TYPE":"U","NORAD_CAT_ID":45567,"ELEMENT_SET_NO":999,"REV_AT_EPOCH":29298,"BSTAR":1.233233e-5,"MEAN_MOTION_DOT":-9.8e-7,"MEAN_MOTION_DDOT":0},{"OBJECT_NAME":"STARLINK-1363","OBJECT_ID":"2020-025AP","EPOCH":"2025-08-06T19:25:13.938240","MEAN_MOTION":15.06393221,"ECCENTRICITY":0.00013089,"INCLINATION":53.0555,"RA_OF_ASC_NODE":331.5002,"ARG_OF_PERICENTER":90.3226,"MEAN_ANOMALY":269.7913,"EPHEMERIS_TYPE":0,"CLASSIFICATION_TYPE":"U","NORAD_CAT_ID":45568,"ELEMENT_SET_NO":999,"REV_AT_EPOCH":29297,"BSTAR":-1.9013959e-5,"MEAN_MOTION_DOT":-5.65e-6,"MEAN_MOTION_DDOT":0},{"OBJECT_NAME":"STARLINK-1366","OBJECT_ID":"2020-025AQ","EPOCH":"2025-08-06T19:09:16.338528","MEAN_MOTION":15.06391489,"ECCENTRICITY":0.00012364,"INCLINATION":53.0563,"RA_OF_ASC_NODE":331.3033,"ARG_OF_PERICENTER":88.2683,"MEAN_ANOMALY":271.8448,"EPHEMERIS_TYPE":0,"CLASSIFICATION_TYPE":"U","NORAD_CAT_ID":45569,"ELEMENT_SET_NO":999,"REV_AT_EPOCH":29297,"BSTAR":-3.5730726e-5,"MEAN_MOTION_DOT":-8.13e-6,"MEAN_MOTION_DDOT":0},{"OBJECT_NAME":"STARLINK-1376","OBJECT_ID":"2020-025AR","EPOCH":"2025-08-06T18:58:39.158400","MEAN_MOTION":15.06390665,"ECCENTRICITY":0.00013558,"INCLINATION":53.0557,"RA_OF_ASC_NODE":331.3379,"ARG_OF_PERICENTER":89.1813,"MEAN_ANOMALY":270.9331,"EPHEMERIS_TYPE":0,"CLASSIFICATION_TYPE":"U","NORAD_CAT_ID":45570,"ELEMENT_SET_NO":999,"REV_AT_EPOCH":29297,"BSTAR":4.0705076e-5,"MEAN_MOTION_DOT":3.25e-6,"MEAN_MOTION_DDOT":0},{"OBJECT_NAME":"STARLINK-1320","OBJECT_ID":"2020-025AT","EPOCH":"2025-08-06T11:51:02.609280","MEAN_MOTION":15.30448059,"ECCENTRICITY":0.00045643,"INCLINATION":53.064,"RA_OF_ASC_NODE":293.7433,"ARG_OF_PERICENTER":31.5287,"MEAN_ANOMALY":328.5986,"EPHEMERIS_TYPE":0,"CLASSIFICATION_TYPE":"U","NORAD_CAT_ID":45572,"ELEMENT_SET_NO":999,"REV_AT_EPOCH":29349,"BSTAR":0.0018170754,"MEAN_MOTION_DOT":0.00054283,"MEAN_MOTION_DDOT":0},{"OBJECT_NAME":"STARLINK-1321","OBJECT_ID":"2020-025AU","EPOCH":"2025-08-06T18:38:45.256416","MEAN_MOTION":15.06391672,"ECCENTRICITY":0.00012749,"INCLINATION":53.0572,"RA_OF_ASC_NODE":321.3982,"ARG_OF_PERICENTER":91.5956,"MEAN_ANOMALY":268.5179,"EPHEMERIS_TYPE":0,"CLASSIFICATION_TYPE":"U","NORAD_CAT_ID":45573,"ELEMENT_SET_NO":999,"REV_AT_EPOCH":29281,"BSTAR":3.890226e-6,"MEAN_MOTION_DOT":-2.23e-6,"MEAN_MOTION_DDOT":0},{"OBJECT_NAME":"STARLINK-1328","OBJECT_ID":"2020-025AX","EPOCH":"2025-08-06T18:17:31.160544","MEAN_MOTION":15.06397925,"ECCENTRICITY":0.00015237,"INCLINATION":53.0563,"RA_OF_ASC_NODE":321.4631,"ARG_OF_PERICENTER":105.3984,"MEAN_ANOMALY":254.7173,"EPHEMERIS_TYPE":0,"CLASSIFICATION_TYPE":"U","NORAD_CAT_ID":45576,"ELEMENT_SET_NO":999,"REV_AT_EPOCH":29312,"BSTAR":-9.455275e-6,"MEAN_MOTION_DOT":-4.22e-6,"MEAN_MOTION_DDOT":0},{"OBJECT_NAME":"STARLINK-1331","OBJECT_ID":"2020-025AZ","EPOCH":"2025-08-06T16:31:21.799200","MEAN_MOTION":15.06400105,"ECCENTRICITY":0.00013935,"INCLINATION":53.0555,"RA_OF_ASC_NODE":321.7958,"ARG_OF_PERICENTER":87.7599,"MEAN_ANOMALY":272.3549,"EPHEMERIS_TYPE":0,"CLASSIFICATION_TYPE":"U","NORAD_CAT_ID":45578,"ELEMENT_SET_NO":999,"REV_AT_EPOCH":29311,"BSTAR":0.00024794269,"MEAN_MOTION_DOT":3.414e-5,"MEAN_MOTION_DDOT":0},{"OBJECT_NAME":"STARLINK-1333","OBJECT_ID":"2020-025BB","EPOCH":"2025-08-06T19:51:45.363168","MEAN_MOTION":15.06383345,"ECCENTRICITY":0.00010308,"INCLINATION":53.0555,"RA_OF_ASC_NODE":331.1759,"ARG_OF_PERICENTER":97.395,"MEAN_ANOMALY":262.7156,"EPHEMERIS_TYPE":0,"CLASSIFICATION_TYPE":"U","NORAD_CAT_ID":45580,"ELEMENT_SET_NO":999,"REV_AT_EPOCH":29298,"BSTAR":0.00064957233,"MEAN_MOTION_DOT":9.403e-5,"MEAN_MOTION_DDOT":0},{"OBJECT_NAME":"STARLINK-1335","OBJECT_ID":"2020-025BC","EPOCH":"2025-08-06T15:11:45.593376","MEAN_MOTION":15.06383442,"ECCENTRICITY":0.00013733,"INCLINATION":53.057,"RA_OF_ASC_NODE":322.044,"ARG_OF_PERICENTER":92.167,"MEAN_ANOMALY":267.9476,"EPHEMERIS_TYPE":0,"CLASSIFICATION_TYPE":"U","NORAD_CAT_ID":45581,"ELEMENT_SET_NO":999,"REV_AT_EPOCH":29309,"BSTAR":-5.9785663e-5,"MEAN_MOTION_DOT":-1.171e-5,"MEAN_MOTION_DDOT":0},{"OBJECT_NAME":"STARLINK-1337","OBJECT_ID":"2020-025BD","EPOCH":"2025-08-06T17:19:08.947776","MEAN_MOTION":15.06384735,"ECCENTRICITY":0.00012352,"INCLINATION":53.0561,"RA_OF_ASC_NODE":321.6487,"ARG_OF_PERICENTER":82.4776,"MEAN_ANOMALY":277.6354,"EPHEMERIS_TYPE":0,"CLASSIFICATION_TYPE":"U","NORAD_CAT_ID":45582,"ELEMENT_SET_NO":999,"REV_AT_EPOCH":29310,"BSTAR":5.7748486e-5,"MEAN_MOTION_DOT":5.79e-6,"MEAN_MOTION_DDOT":0},{"OBJECT_NAME":"STARLINK-1347","OBJECT_ID":"2020-025BH","EPOCH":"2025-08-06T19:00:59.566176","MEAN_MOTION":15.20122594,"ECCENTRICITY":0.00025407,"INCLINATION":53.0514,"RA_OF_ASC_NODE":317.9637,"ARG_OF_PERICENTER":295.3375,"MEAN_ANOMALY":64.7357,"EPHEMERIS_TYPE":0,"CLASSIFICATION_TYPE":"U","NORAD_CAT_ID":45586,"ELEMENT_SET_NO":999,"REV_AT_EPOCH":29315,"BSTAR":0.00083738983,"MEAN_MOTION_DOT":0.00018051,"MEAN_MOTION_DDOT":0},{"OBJECT_NAME":"STARLINK-1349","OBJECT_ID":"2020-025BJ","EPOCH":"2025-08-06T22:00:01.999584","MEAN_MOTION":15.81456997,"ECCENTRICITY":0.00137029,"INCLINATION":53.0508,"RA_OF_ASC_NODE":291.1189,"ARG_OF_PERICENTER":310.828,"MEAN_ANOMALY":89.5935,"EPHEMERIS_TYPE":0,"CLASSIFICATION_TYPE":"U","NORAD_CAT_ID":45587,"ELEMENT_SET_NO":999,"REV_AT_EPOCH":604,"BSTAR":0.00050378618,"MEAN_MOTION_DOT":0.00103334,"MEAN_MOTION_DDOT":0},{"OBJECT_NAME":"STARLINK-1360","OBJECT_ID":"2020-025BK","EPOCH":"2025-08-06T17:47:54.780000","MEAN_MOTION":15.61666539,"ECCENTRICITY":7.289e-5,"INCLINATION":53.0496,"RA_OF_ASC_NODE":262.9383,"ARG_OF_PERICENTER":54.6568,"MEAN_ANOMALY":305.4513,"EPHEMERIS_TYPE":0,"CLASSIFICATION_TYPE":"U","NORAD_CAT_ID":45588,"ELEMENT_SET_NO":999,"REV_AT_EPOCH":29393,"BSTAR":0.00037128892,"MEAN_MOTION_DOT":0.00032191,"MEAN_MOTION_DDOT":0},{"OBJECT_NAME":"STARLINK-1364","OBJECT_ID":"2020-025BL","EPOCH":"2025-08-06T17:24:26.980128","MEAN_MOTION":15.06385955,"ECCENTRICITY":0.00013188,"INCLINATION":53.0566,"RA_OF_ASC_NODE":321.6324,"ARG_OF_PERICENTER":91.0718,"MEAN_ANOMALY":269.0422,"EPHEMERIS_TYPE":0,"CLASSIFICATION_TYPE":"U","NORAD_CAT_ID":45589,"ELEMENT_SET_NO":999,"REV_AT_EPOCH":29310,"BSTAR":1.6908842e-5,"MEAN_MOTION_DOT":-3.0e-7,"MEAN_MOTION_DDOT":0},{"OBJECT_NAME":"STARLINK-1365","OBJECT_ID":"2020-025BM","EPOCH":"2025-08-06T19:22:33.032064","MEAN_MOTION":15.06389884,"ECCENTRICITY":0.00016038,"INCLINATION":53.0557,"RA_OF_ASC_NODE":351.2643,"ARG_OF_PERICENTER":95.5422,"MEAN_ANOMALY":264.575,"EPHEMERIS_TYPE":0,"CLASSIFICATION_TYPE":"U","NORAD_CAT_ID":45590,"ELEMENT_SET_NO":999,"REV_AT_EPOCH":29271,"BSTAR":-4.5616523e-5,"MEAN_MOTION_DOT":-9.61e-6,"MEAN_MOTION_DDOT":0},{"OBJECT_NAME":"STARLINK-1443","OBJECT_ID":"2020-035D","EPOCH":"2025-08-06T12:39:09.404352","MEAN_MOTION":15.06389836,"ECCENTRICITY":9.175e-5,"INCLINATION":53.0551,"RA_OF_ASC_NODE":312.5216,"ARG_OF_PERICENTER":80.8447,"MEAN_ANOMALY":279.2646,"EPHEMERIS_TYPE":0,"CLASSIFICATION_TYPE":"U","NORAD_CAT_ID":45660,"ELEMENT_SET_NO":999,"REV_AT_EPOCH":28630,"BSTAR":6.9780239e-5,"MEAN_MOTION_DOT":7.58e-6,"MEAN_MOTION_DDOT":0},{"OBJECT_NAME":"STARLINK-1446","OBJECT_ID":"2020-035G","EPOCH":"2025-08-06T20:11:59.028288","MEAN_MOTION":15.25706002,"ECCENTRICITY":0.00055908,"INCLINATION":53.0313,"RA_OF_ASC_NODE":288.0158,"ARG_OF_PERICENTER":327.4587,"MEAN_ANOMALY":32.6065,"EPHEMERIS_TYPE":0,"CLASSIFICATION_TYPE":"U","NORAD_CAT_ID":45663,"ELEMENT_SET_NO":999,"REV_AT_EPOCH":28667,"BSTAR":0.0012175729,"MEAN_MOTION_DOT":0.00031243,"MEAN_MOTION_DDOT":0},{"OBJECT_NAME":"STARLINK-1448","OBJECT_ID":"2020-035J","EPOCH":"2025-08-06T12:44:27.943872","MEAN_MOTION":15.0638614,"ECCENTRICITY":0.00012293,"INCLINATION":53.0541,"RA_OF_ASC_NODE":312.5027,"ARG_OF_PERICENTER":86.9481,"MEAN_ANOMALY":273.1648,"EPHEMERIS_TYPE":0,"CLASSIFICATION_TYPE":"U","NORAD_CAT_ID":45665,"ELEMENT_SET_NO":999,"REV_AT_EPOCH":28629,"BSTAR":3.735254e-5,"MEAN_MOTION_DOT":2.75e-6,"MEAN_MOTION_DDOT":0},{"OBJECT_NAME":"STARLINK-1451","OBJECT_ID":"2020-035M","EPOCH":"2025-08-06T17:36:26.923680","MEAN_MOTION":15.06389315,"ECCENTRICITY":0.00013047,"INCLINATION":53.0548,"RA_OF_ASC_NODE":311.9123,"ARG_OF_PERICENTER":86.9457,"MEAN_ANOMALY":273.1681,"EPHEMERIS_TYPE":0,"CLASSIFICATION_TYPE":"U","NORAD_CAT_ID":45668,"ELEMENT_SET_NO":999,"REV_AT_EPOCH":28633,"BSTAR":6.6794662e-5,"MEAN_MOTION_DOT":7.13e-6,"MEAN_MOTION_DDOT":0},{"OBJECT_NAME":"STARLINK-1452","OBJECT_ID":"2020-035N","EPOCH":"2025-08-06T22:19:59.620224","MEAN_MOTION":15.1852938,"ECCENTRICITY":0.00029773,"INCLINATION":53.0528,"RA_OF_ASC_NODE":301.3964,"ARG_OF_PERICENTER":103.0288,"MEAN_ANOMALY":257.1039,"EPHEMERIS_TYPE":0,"CLASSIFICATION_TYPE":"U","NORAD_CAT_ID":45669,"ELEMENT_SET_NO":999,"REV_AT_EPOCH":28649,"BSTAR":0.0012865932,"MEAN_MOTION_DOT":0.00026671,"MEAN_MOTION_DDOT":0}]
